OBJECT_NAME,OBJECT_ID,EPOCH,MEAN_MOTION,ECCENTRICITY,INCLINATION,RA_OF_ASC_NODE,ARG_OF_PERICENTER,MEAN_ANOMALY,EPHEMERIS_TYPE,CLASSIFICATION_TYPE,NORAD_CAT_ID,ELEMENT_SET_NO,REV_AT_EPOCH,BSTAR,MEAN_MOTION_DOT,MEAN_MOTION_DDOT
ONEWEB-0607,2022-166AF,2026-06-07T12:18:18.213120,13.21825326,.0002011,87.9264,245.8945,94.6791,265.4572,0,U,54671,999,17026,-.57219E-3,-.223E-5,0
ONEWEB-0608,2022-166AG,2026-06-07T12:28:01.273152,13.21826977,.0002415,87.9282,245.8899,90.2361,269.9050,0,U,54672,999,17027,.74392E-4,.44E-6,0
ONEWEB-0610,2022-166AH,2026-06-07T11:58:55.632000,13.21828357,.0002346,87.9255,245.9086,84.9517,275.1885,0,U,54673,999,17017,.12036E-3,.63E-6,0
ONEWEB-0611,2022-166AJ,2026-06-07T11:49:14.935008,13.21827497,.0001994,87.9261,245.9066,102.5890,257.5467,0,U,54674,999,17016,.19347E-3,.93E-6,0
ONEWEB-0612,2022-166AK,2026-06-07T04:52:37.344864,13.21825103,.0002157,87.9266,245.9581,96.0750,264.0630,0,U,54675,999,17011,.13081E-3,.67E-6,0
ONEWEB-0615,2022-166AL,2026-06-07T11:39:35.126208,13.21826554,.0001782,87.9259,245.9172,103.9925,256.1407,0,U,54676,999,17016,.25391E-3,.118E-5,0
ONEWEB-0655,2022-166AM,2026-06-07T05:38:39.851808,13.21826578,.0001882,87.9257,245.9687,92.8561,267.2789,0,U,54677,999,17012,.12942E-3,.66E-6,0
ONEWEB-0659,2022-166AN,2026-06-07T11:29:53.923776,13.21807160,.0002122,87.9234,245.9197,100.0712,260.0661,0,U,54678,999,17024,-.51267E-2,-.2103E-4,0
ONEWEB-0685,2022-166AP,2026-06-07T11:30:14.020416,13.21841501,.0001778,87.9253,245.9121,80.1573,279.9761,0,U,54679,999,17013,.25901E-2,.1083E-4,0
ONEWEB-0712,2022-166AQ,2026-06-07T11:37:32.269728,13.16594085,.0001716,87.9105,230.7010,87.5318,272.6009,0,U,54680,999,17078,.20633E-3,.92E-6,0
ONEWEB-0714,2022-166AR,2026-06-07T11:37:07.531680,13.21840053,.0002077,87.9257,245.9085,95.0193,265.1178,0,U,54681,999,17025,-.41626E-2,-.1706E-4,0
ONEWEB-0532,2023-004A,2026-06-07T07:31:27.319296,13.17648109,.0002166,87.9141,7.8295,90.9930,269.1450,0,U,55140,999,16628,.13812E-3,.67E-6,0
ONEWEB-0533,2023-004B,2026-06-07T05:47:56.789664,13.12442041,.0001902,87.8947,352.6489,83.0005,277.1339,0,U,55141,999,16675,-.16781E-3,-.48E-6,0
ONEWEB-0541,2023-004C,2026-06-07T08:09:37.034208,13.11417630,.0001783,87.8905,23.0172,90.4181,269.7152,0,U,55142,999,16465,-.13885E-2,-.479E-5,0
ONEWEB-0543,2023-004D,2026-06-07T05:22:37.375680,13.18685330,.0001702,87.9157,337.4532,87.1350,272.9977,0,U,55143,999,16838,-.48788E-3,-.179E-5,0
ONEWEB-0544,2023-004E,2026-06-07T05:12:55.234944,13.18686219,.0001689,87.9153,337.4540,95.1807,264.9518,0,U,55144,999,16838,.14203E-3,.69E-6,0
ONEWEB-0560,2023-004F,2026-06-07T05:03:12.808224,13.18686616,.0001545,87.9160,337.4447,93.4926,266.6383,0,U,55145,999,16839,.25289E-3,.113E-5,0
ONEWEB-0565,2023-004G,2026-06-07T04:53:29.378400,13.18685757,.0001857,87.9147,337.4748,104.5136,255.6202,0,U,55146,999,16838,-.18918E-3,-.62E-6,0
ONEWEB-0567,2023-004H,2026-06-07T04:43:47.178048,13.18685601,.0001707,87.9157,337.4596,102.1882,257.9442,0,U,55147,999,16838,-.69588E-4,-.15E-6,0
ONEWEB-0569,2023-004J,2026-06-06T17:22:45.857568,13.13469593,.00011621,87.8954,322.3030,119.6875,240.4370,0,U,55148,999,16880,-.49408795E-3,-.168E-5,0
ONEWEB-0570,2023-004K,2026-06-07T04:31:37.485120,13.18684391,.0002161,87.9155,337.4592,97.2380,262.8997,0,U,55149,999,16837,-.87662E-4,-.22E-6,0
ONEWEB-0571,2023-004L,2026-06-07T06:11:11.823936,13.18675222,.0001808,87.9157,337.4450,129.4040,230.7252,0,U,55150,999,16839,-.31822E-2,-.1241E-4,0
ONEWEB-0572,2023-004M,2026-06-07T08:15:11.386656,13.17648053,.0001846,87.9139,7.8239,93.6258,266.5085,0,U,55151,999,16618,-.47581E-4,-.6E-7,0
ONEWEB-0573,2023-004N,2026-06-07T06:01:28.491744,13.18685893,.0001809,87.9157,337.4476,119.5581,240.5731,0,U,55152,999,16838,-.20213E-3,-.67E-6,0
ONEWEB-0588,2023-004P,2026-06-07T05:51:45.184608,13.18685010,.0002231,87.9156,337.4494,100.4388,259.6995,0,U,55153,999,16838,-.38793E-3,-.14E-5,0
ONEWEB-0598,2023-004Q,2026-06-07T07:37:53.298336,13.11415899,.0001316,87.8895,23.0333,105.5731,254.5542,0,U,55154,999,16460,.78032E-3,.289E-5,0
ONEWEB-0599,2023-004R,2026-06-07T01:51:15.707232,13.17647642,.000163,87.9140,7.8759,83.7423,276.3894,0,U,55155,999,16615,.58488E-4,.36E-6,0
ONEWEB-0614,2023-004S,2026-06-07T09:20:25.723104,13.11416653,.0001982,87.8899,23.0279,83.4818,276.6536,0,U,55156,999,16455,.12821E-2,.467E-5,0
ONEWEB-0616,2023-004T,2026-06-07T08:20:03.841152,13.17648780,.0001263,87.9146,7.8253,58.7959,301.3297,0,U,55157,999,16640,-.31451E-3,-.109E-5,0
ONEWEB-0617,2023-004U,2026-06-07T09:03:21.013056,13.11418208,.0002215,87.8897,23.0210,88.8781,271.2601,0,U,55158,999,16457,.13579E-2,.494E-5,0
